LEMUR-2-ANDIS           
1 42838U 17042P   26068.55941107  .00023598  00000+0  79875-3 0  9998
2 42838  97.3659 249.7950 0009101   4.3248 355.8070 15.30557934473198
STARLINK-2156           
1 47742U 21017W   26068.62268476 -.00005979  00000+0 -19007-3 0  9999
2 47742  53.1599 194.4886 0000690  50.5966 309.5096 15.30175173278028
