[{"OBJECT_NAME":"LEMUR-2-ANDIS","OBJECT_ID":"2017-042P","EPOCH":"2026-03-09T13:25:33.116448","MEAN_MOTION":15.30557934,"ECCENTRICITY":0.0009101,"INCLINATION":97.3659,"RA_OF_ASC_NODE":249.795,"ARG_OF_PERICENTER":4.3248,"MEAN_ANOMALY":355.807,"EPHEMERIS_TYPE":0,"CLASSIFICATION_TYPE":"U","NORAD_CAT_ID":42838,"ELEMENT_SET_NO":999,"REV_AT_EPOCH":47319,"BSTAR":0.00079875,"MEAN_MOTION_DOT":0.00023598,"MEAN_MOTION_DDOT":0},{"OBJECT_NAME":"STARLINK-2156","OBJECT_ID":"2021-017W","EPOCH":"2026-03-09T14:56:39.963264","MEAN_MOTION":15.30175173,"ECCENTRICITY":6.9e-5,"INCLINATION":53.1599,"RA_OF_ASC_NODE":194.4886,"ARG_OF_PERICENTER":50.5966,"MEAN_ANOMALY":309.5096,"EPHEMERIS_TYPE":0,"CLASSIFICATION_TYPE":"U","NORAD_CAT_ID":47742,"ELEMENT_SET_NO":999,"REV_AT_EPOCH":27802,"BSTAR":-0.00019007,"MEAN_MOTION_DOT":-5.979e-5,"MEAN_MOTION_DDOT":0}]
